start=new Date('2022-10-01T00:00:00.000Z').valueOf();
sats=[{"BSTAR":"-0.00120190000000","CENTER_NAME":"EARTH","SITE":"AFETR","FILE":"3587966","MEAN_MOTION_DOT":"-0.00018182","TIME_SYSTEM":"UTC","ARG_OF_PERICENTER":"67.0976","REF_FRAME":"TEME","REV_AT_EPOCH":"10811","MEAN_MOTION_DDOT":"0.0000000000000","ECCENTRICITY":"0.00008220","OBJECT_TYPE":"PAYLOAD","PERIOD":"95.586","OBJECT_ID":"2020-073AC","EPHEMERIS_TYPE":"0","TLE_LINE1":"1 46696U 20073AC  22273.78239206 -.00018182  00000-0 -12019-2 0  9993","OBJECT_NAME":"STARLINK-1795","EPOCH":"2022-09-30T18:46:38.673984","ELEMENT_SET_NO":"999","TLE_LINE2":"2 46696  53.0515  99.6145 0000822  67.0976 293.0100 15.06490698108117","RA_OF_ASC_NODE":"99.6145","COUNTRY_CODE":"US","MEAN_MOTION":"15.06490698","PERIAPSIS":"546.366","RCS_SIZE":"LARGE","GP_ID":"213903263","DECAY_DATE":null,"NORAD_CAT_ID":"46696","MEAN_ANOMALY":"293.0100","LAUNCH_DATE":"2020-10-18","MEAN_ELEMENT_THEORY":"SGP4","CLASSIFICATION_TYPE":"U","SEMIMAJOR_AXIS":"6925.071","APOAPSIS":"547.505","INCLINATION":"53.0515"},{"CENTER_NAME":"EARTH","BSTAR":"0.00023152000000","REV_AT_EPOCH":"10784","ARG_OF_PERICENTER":"98.0517","REF_FRAME":"TEME","MEAN_MOTION_DOT":"0.00003169","TIME_SYSTEM":"UTC","FILE":"3587966","SITE":"AFETR","EPHEMERIS_TYPE":"0","PERIOD":"95.592","OBJECT_ID":"2020-073AE","OBJECT_TYPE":"PAYLOAD","ECCENTRICITY":"0.00013200","MEAN_MOTION_DDOT":"0.0000000000000","TLE_LINE2":"2 46698  53.0534 119.3423 0001320  98.0517 262.0622 15.06402501107848","ELEMENT_SET_NO":"999","EPOCH":"2022-09-30T20:07:34.575168","OBJECT_NAME":"STARLINK-1797","TLE_LINE1":"1 46698U 20073AE  22273.83859462  .00003169  00000-0  23152-3 0  9991","COUNTRY_CODE":"US","RA_OF_ASC_NODE":"119.3423","DECAY_DATE":null,"GP_ID":"213903490","RCS_SIZE":"LARGE","PERIAPSIS":"546.292","MEAN_MOTION":"15.06402501","CLASSIFICATION_TYPE":"U","MEAN_ELEMENT_THEORY":"SGP4","LAUNCH_DATE":"2020-10-18","MEAN_ANOMALY":"262.0622","NORAD_CAT_ID":"46698","INCLINATION":"53.0534","APOAPSIS":"548.120","SEMIMAJOR_AXIS":"6925.341"},{"BSTAR":"0.00035418000000","CENTER_NAME":"EARTH","MEAN_MOTION_DOT":"0.00004995","TIME_SYSTEM":"UTC","FILE":"3587966","SITE":"AFETR","REV_AT_EPOCH":"10784","REF_FRAME":"TEME","ARG_OF_PERICENTER":"108.2288","ECCENTRICITY":"0.00016640","MEAN_MOTION_DDOT":"0.0000000000000","EPHEMERIS_TYPE":"0","PERIOD":"95.593","OBJECT_ID":"2020-073AF","OBJECT_TYPE":"PAYLOAD","OBJECT_NAME":"STARLINK-1799","TLE_LINE1":"1 46699U 20073AF  22273.84322547  .00004995  00000-0  35418-3 0  9998","TLE_LINE2":"2 46699  53.0550 119.3372 0001664 108.2288 251.8882 15.06382222107841","ELEMENT_SET_NO":"999","EPOCH":"2022-09-30T20:14:14.680608","RA_OF_ASC_NODE":"119.3372","COUNTRY_CODE":"US","PERIAPSIS":"546.116","MEAN_MOTION":"15.06382222","DECAY_DATE":null,"GP_ID":"213902263","RCS_SIZE":"LARGE","NORAD_CAT_ID":"46699","CLASSIFICATION_TYPE":"U","LAUNCH_DATE":"2020-10-18","MEAN_ELEMENT_THEORY":"SGP4","MEAN_ANOMALY":"251.8882","APOAPSIS":"548.420","INCLINATION":"53.0550","SEMIMAJOR_AXIS":"6925.403"},{"NORAD_CAT_ID":"46700","MEAN_ANOMALY":"264.4629","LAUNCH_DATE":"2020-10-18","MEAN_ELEMENT_THEORY":"SGP4","CLASSIFICATION_TYPE":"U","SEMIMAJOR_AXIS":"6925.369","APOAPSIS":"548.031","INCLINATION":"53.0553","RA_OF_ASC_NODE":"135.2204","COUNTRY_CODE":"US","MEAN_MOTION":"15.06393204","PERIAPSIS":"546.438","RCS_SIZE":"LARGE","GP_ID":"213903013","DECAY_DATE":null,"MEAN_MOTION_DDOT":"0.0000000000000","ECCENTRICITY":"0.00011500","OBJECT_TYPE":"PAYLOAD","PERIOD":"95.593","OBJECT_ID":"2020-073AG","EPHEMERIS_TYPE":"0","TLE_LINE1":"1 46700U 20073AG  22273.64833029  .00001923  00000-0  14798-3 0  9997","OBJECT_NAME":"STARLINK-1800","EPOCH":"2022-09-30T15:33:35.737056","TLE_LINE2":"2 46700  53.0553 135.2204 0001150  95.6491 264.4629 15.06393204107608","ELEMENT_SET_NO":"999","BSTAR":"0.00014798000000","CENTER_NAME":"EARTH","SITE":"AFETR","FILE":"3587966","TIME_SYSTEM":"UTC","MEAN_MOTION_DOT":"0.00001923","REF_FRAME":"TEME","ARG_OF_PERICENTER":"95.6491","REV_AT_EPOCH":"10760"},{"MEAN_MOTION_DDOT":"0.0000000000000","ECCENTRICITY":"0.00014360","OBJECT_TYPE":"PAYLOAD","PERIOD":"95.592","OBJECT_ID":"2020-073AH","EPHEMERIS_TYPE":"0","OBJECT_NAME":"STARLINK-1801","TLE_LINE1":"1 46701U 20073AH  22273.88008513 -.00002659  00000-0 -15962-3 0  9999","EPOCH":"2022-09-30T21:07:19.355232","TLE_LINE2":"2 46701  53.0536 119.1775 0001436  97.9059 262.2093 15.06409902107857","ELEMENT_SET_NO":"999","BSTAR":"-0.00015962000000","CENTER_NAME":"EARTH","SITE":"AFETR","FILE":"3587966","TIME_SYSTEM":"UTC","MEAN_MOTION_DOT":"-0.00002659","ARG_OF_PERICENTER":"97.9059","REF_FRAME":"TEME","REV_AT_EPOCH":"10785","NORAD_CAT_ID":"46701","MEAN_ANOMALY":"262.2093","MEAN_ELEMENT_THEORY":"SGP4","LAUNCH_DATE":"2020-10-18","CLASSIFICATION_TYPE":"U","SEMIMAJOR_AXIS":"6925.318","INCLINATION":"53.0536","APOAPSIS":"548.178","RA_OF_ASC_NODE":"119.1775","COUNTRY_CODE":"US","MEAN_MOTION":"15.06409902","PERIAPSIS":"546.189","RCS_SIZE":"LARGE","GP_ID":"213903762","DECAY_DATE":null},{"PERIAPSIS":"546.104","MEAN_MOTION":"15.06394979","DECAY_DATE":null,"GP_ID":"213903990","RCS_SIZE":"LARGE","RA_OF_ASC_NODE":"99.4118","COUNTRY_CODE":"US","APOAPSIS":"548.354","INCLINATION":"53.0527","SEMIMAJOR_AXIS":"6925.364","NORAD_CAT_ID":"46702","CLASSIFICATION_TYPE":"U","MEAN_ELEMENT_THEORY":"SGP4","LAUNCH_DATE":"2020-10-18","MEAN_ANOMALY":"281.7889","TIME_SYSTEM":"UTC","MEAN_MOTION_DOT":"0.00001355","FILE":"3587966","SITE":"AFETR","REV_AT_EPOCH":"10812","REF_FRAME":"TEME","ARG_OF_PERICENTER":"78.3282","BSTAR":"0.00010988000000","CENTER_NAME":"EARTH","TLE_LINE1":"1 46702U 20073AJ  22273.82665795  .00001355  00000-0  10988-3 0  9998","OBJECT_NAME":"STARLINK-1802","TLE_LINE2":"2 46702  53.0527  99.4118 0001625  78.3282 281.7889 15.06394979108127","ELEMENT_SET_NO":"999","EPOCH":"2022-09-30T19:50:23.246880","ECCENTRICITY":"0.00016250","MEAN_MOTION_DDOT":"0.0000000000000","EPHEMERIS_TYPE":"0","PERIOD":"95.592","OBJECT_ID":"2020-073AJ","OBJECT_TYPE":"PAYLOAD"},{"PERIOD":"95.593","OBJECT_ID":"2020-073AK","OBJECT_TYPE":"PAYLOAD","EPHEMERIS_TYPE":"0","ECCENTRICITY":"0.00013250","MEAN_MOTION_DDOT":"0.0000000000000","EPOCH":"2022-09-30T20:35:29.198976","TLE_LINE2":"2 46703  53.0536 119.2581 0001325  83.5150 276.5990 15.06393743107843","ELEMENT_SET_NO":"999","TLE_LINE1":"1 46703U 20073AK  22273.85797684  .00002138  00000-0  16243-3 0  9995","OBJECT_NAME":"STARLINK-1803","CENTER_NAME":"EARTH","BSTAR":"0.00016243000000","REF_FRAME":"TEME","ARG_OF_PERICENTER":"83.5150","REV_AT_EPOCH":"10784","FILE":"3587966","SITE":"AFETR","TIME_SYSTEM":"UTC","MEAN_MOTION_DOT":"0.00002138","MEAN_ANOMALY":"276.5990","CLASSIFICATION_TYPE":"U","LAUNCH_DATE":"2020-10-18","MEAN_ELEMENT_THEORY":"SGP4","NORAD_CAT_ID":"46703","SEMIMAJOR_AXIS":"6925.368","APOAPSIS":"548.150","INCLINATION":"53.0536","COUNTRY_CODE":"US","RA_OF_ASC_NODE":"119.2581","RCS_SIZE":"LARGE","DECAY_DATE":null,"GP_ID":"213902762","MEAN_MOTION":"15.06393743","PERIAPSIS":"546.315"},{"REV_AT_EPOCH":"10809","REF_FRAME":"TEME","ARG_OF_PERICENTER":"74.2795","MEAN_MOTION_DOT":"0.00001158","TIME_SYSTEM":"UTC","SITE":"AFETR","FILE":"3587966","CENTER_NAME":"EARTH","BSTAR":"0.00009662100000","TLE_LINE2":"2 46704  53.0542 100.2573 0001196  74.2795 285.8326 15.06406476108092","ELEMENT_SET_NO":"999","EPOCH":"2022-09-30T15:19:39.827424","TLE_LINE1":"1 46704U 20073AL  22273.63865541  .00001158  00000-0  96621-4 0  9990","OBJECT_NAME":"STARLINK-1804","EPHEMERIS_TYPE":"0","OBJECT_TYPE":"PAYLOAD","PERIOD":"95.592","OBJECT_ID":"2020-073AL","MEAN_MOTION_DDOT":"0.0000000000000","ECCENTRICITY":"0.00011960","GP_ID":"213903512","DECAY_DATE":null,"RCS_SIZE":"LARGE","PERIAPSIS":"546.365","MEAN_MOTION":"15.06406476","COUNTRY_CODE":"US","RA_OF_ASC_NODE":"100.2573","INCLINATION":"53.0542","APOAPSIS":"548.022","SEMIMAJOR_AXIS":"6925.329","LAUNCH_DATE":"2020-10-18","MEAN_ELEMENT_THEORY":"SGP4","CLASSIFICATION_TYPE":"U","MEAN_ANOMALY":"285.8326","NORAD_CAT_ID":"46704"},{"CLASSIFICATION_TYPE":"U","LAUNCH_DATE":"2020-10-18","MEAN_ELEMENT_THEORY":"SGP4","MEAN_ANOMALY":"273.5314","NORAD_CAT_ID":"46705","INCLINATION":"53.0546","APOAPSIS":"548.280","SEMIMAJOR_AXIS":"6925.400","COUNTRY_CODE":"US","RA_OF_ASC_NODE":"136.6742","DECAY_DATE":null,"GP_ID":"213874194","RCS_SIZE":"LARGE","PERIAPSIS":"546.250","MEAN_MOTION":"15.06383266","EPHEMERIS_TYPE":"0","PERIOD":"95.593","OBJECT_ID":"2020-073AM","OBJECT_TYPE":"PAYLOAD","ECCENTRICITY":"0.00014660","MEAN_MOTION_DDOT":"0.0000000000000","ELEMENT_SET_NO":"999","TLE_LINE2":"2 46705  53.0546 136.6742 0001466  86.5843 273.5314 15.06383266107550","EPOCH":"2022-09-30T07:41:13.814592","TLE_LINE1":"1 46705U 20073AM  22273.32029878 -.00000898  00000-0 -41418-4 0  9998","OBJECT_NAME":"STARLINK-1805","CENTER_NAME":"EARTH","BSTAR":"-0.00004141800000","REV_AT_EPOCH":"10755","REF_FRAME":"TEME","ARG_OF_PERICENTER":"86.5843","MEAN_MOTION_DOT":"-0.00000898","TIME_SYSTEM":"UTC","FILE":"3587752","SITE":"AFETR"},{"RA_OF_ASC_NODE":"120.0229","COUNTRY_CODE":"US","MEAN_MOTION":"15.06405945","PERIAPSIS":"546.082","RCS_SIZE":"LARGE","DECAY_DATE":null,"GP_ID":"213903491","NORAD_CAT_ID":"46706","MEAN_ANOMALY":"275.2333","CLASSIFICATION_TYPE":"U","MEAN_ELEMENT_THEORY":"SGP4","LAUNCH_DATE":"2020-10-18","SEMIMAJOR_AXIS":"6925.330","INCLINATION":"53.0548","APOAPSIS":"548.308","BSTAR":"0.00006815800000","CENTER_NAME":"EARTH","FILE":"3587966","SITE":"AFETR","TIME_SYSTEM":"UTC","MEAN_MOTION_DOT":"0.00000734","ARG_OF_PERICENTER":"84.8839","REF_FRAME":"TEME","REV_AT_EPOCH":"10782","ECCENTRICITY":"0.00016070","MEAN_MOTION_DDOT":"0.0000000000000","PERIOD":"95.592","OBJECT_ID":"2020-073AN","OBJECT_TYPE":"PAYLOAD","EPHEMERIS_TYPE":"0","TLE_LINE1":"1 46706U 20073AN  22273.69210317  .00000734  00000-0  68158-4 0  9996","OBJECT_NAME":"STARLINK-1807","EPOCH":"2022-09-30T16:36:37.713888","ELEMENT_SET_NO":"999","TLE_LINE2":"2 46706  53.0548 120.0229 0001607  84.8839 275.2333 15.06405945107822"}];
